[{"OBJECT_NAME":"NETSAT-1","OBJECT_ID":"2020-068W","EPOCH":"2026-03-09T22:42:38.711232","MEAN_MOTION":15.32042482,"ECCENTRICITY":0.00057337,"INCLINATION":97.8751,"RA_OF_ASC_NODE":63.2583,"ARG_OF_PERICENTER":18.5877,"MEAN_ANOMALY":341.5572,"EPHEMERIS_TYPE":0,"CLASSIFICATION_TYPE":"U","NORAD_CAT_ID":46506,"ELEMENT_SET_NO":999,"REV_AT_EPOCH":30009,"BSTAR":0.00059222329,"MEAN_MOTION_DOT":0.00018269,"MEAN_MOTION_DDOT":0},{"OBJECT_NAME":"STARLINK-35847","OBJECT_ID":"2025-271E","EPOCH":"2026-03-09T11:49:00.027552","MEAN_MOTION":15.30195077,"ECCENTRICITY":0.00010077,"INCLINATION":53.1575,"RA_OF_ASC_NODE":141.0478,"ARG_OF_PERICENTER":81.261,"MEAN_ANOMALY":278.8505,"EPHEMERIS_TYPE":0,"CLASSIFICATION_TYPE":"U","NORAD_CAT_ID":66621,"ELEMENT_SET_NO":999,"REV_AT_EPOCH":1753,"BSTAR":0.00076012104,"MEAN_MOTION_DOT":0.00022217,"MEAN_MOTION_DDOT":0}]
